{"type": "FeatureCollection", "features": [ {"type": "Feature", "properties": {"norad_id": 34001, "name": "COSMOS 2251 DEB", "group": "cosmos-2251-debris", "lat": 67.01744059143161, "lon": 54.68468041012123, "alt_km": 765.8884089154999, "timestamp": "2025-12-15T04:01:20.845300+00:00", "meta": {"OBJECT_NAME": "COSMOS 2251 DEB", "OBJECT_ID": "1993-036GL", "EPOCH": "2025-12-14T06:22:45.836256", "MEAN_MOTION": 14.37100984, "ECCENTRICITY": 0.0020029, "INCLINATION": 74.0389, "RA_OF_ASC_NODE": 278.7813, "ARG_OF_PERICENTER": 359.3939, "MEAN_ANOMALY": 123.4936, "EPHEMERIS_TYPE": 0, "CLASSIFICATION_TYPE": "U", "NORAD_CAT_ID": 34001, "ELEMENT_SET_NO": 999, "REV_AT_EPOCH": 88168, "BSTAR": 0.00027798058, "MEAN_MOTION_DOT": 8.01e-06, "MEAN_MOTION_DDOT": 0}, "tle": {"line1": "1 34001U 93036GL  25348.26580829  .00000801  00000+0  27798-3 0  9995", "line2": "2 34001  74.0389 278.7813 0020029 359.3939 123.4936 14.37100984881687"}}, "geometry": {"type": "Point", "coordinates": [54.68468041012123, 67.01744059143161]}}, {"type": "Feature", "properties": {"norad_id": 34003, "name": "COSMOS 2251 DEB", "group": "cosmos-2251-debris", "lat": -64.33199910268259, "lon": 137.4988441543587, "alt_km": 1114.4642234608064, "timestamp": "2025-12-15T04:01:20.845310+00:00", "meta": {"OBJECT_NAME": "COSMOS 2251 DEB", "OBJECT_ID": "1993-036GN", "EPOCH": "2025-12-13T21:19:55.881408", "MEAN_MOTION": 13.84160554, "ECCENTRICITY": 0.02744519, "INCLINATION": 74.0775, "RA_OF_ASC_NODE": 283.21, "ARG_OF_PERICENTER": 34.9667, "MEAN_ANOMALY": 326.9142, "EPHEMERIS_TYPE": 0, "CLASSIFICATION_TYPE": "U", "NORAD_CAT_ID": 34003, "ELEMENT_SET_NO": 999, "REV_AT_EPOCH": 84441, "BSTAR": 0.0024534575, "MEAN_MOTION_DOT": 3.64e-05, "MEAN_MOTION_DDOT": 0}, "tle": {"line1": "1 34003U 93036GN  25347.88884122  .00003640  00000+0  24535-2 0  9996", "line2": "2 34003  74.0775 283.2100 0274451  34.9667 326.9142 13.84160554844411"}}, "geometry": {"type": "Point", "coordinates": [137.4988441543587, -64.33199910268259]}}, {"type": "Feature", "properties": {"norad_id": 34004, "name": "COSMOS 2251 DEB", "group": "cosmos-2251-debris", "lat": 72.65803621591564, "lon": 62.102802123728246, "alt_km": 738.6405092771047, "timestamp": "2025-12-15T04:01:20.845320+00:00", "meta": {"OBJECT_NAME": "COSMOS 2251 DEB", "OBJECT_ID": "1993-036GP", "EPOCH": "2025-12-14T07:41:38.772960", "MEAN_MOTION": 14.49031844, "ECCENTRICITY": 0.0033395, "INCLINATION": 74.035, "RA_OF_ASC_NODE": 310.1454, "ARG_OF_PERICENTER": 322.0766, "MEAN_ANOMALY": 37.8042, "EPHEMERIS_TYPE": 0, "CLASSIFICATION_TYPE": "U", "NORAD_CAT_ID": 34004, "ELEMENT_SET_NO": 999, "REV_AT_EPOCH": 88053, "BSTAR": 0.0015441329, "MEAN_MOTION_DOT": 5.878e-05, "MEAN_MOTION_DDOT": 0}, "tle": {"line1": "1 34004U 93036GP  25348.32058765  .00005878  00000+0  15441-2 0  9994", "line2": "2 34004  74.0350 310.1454 0033395 322.0766  37.8042 14.49031844880535"}}, "geometry": {"type": "Point", "coordinates": [62.102802123728246, 72.65803621591564]}}, {"type": "Feature", "properties": {"norad_id": 34005, "name": "COSMOS 2251 DEB", "group": "cosmos-2251-debris", "lat": -61.51842365820046, "lon": 177.3373366094683, "alt_km": 751.7721474559648, "timestamp": "2025-12-15T04:01:20.845337+00:00", "meta": {"OBJECT_NAME": "COSMOS 2251 DEB", "OBJECT_ID": "1993-036GQ", "EPOCH": "2025-12-14T02:11:59.072352", "MEAN_MOTION": 14.40305475, "ECCENTRICITY": 0.00208948, "INCLINATION": 74.0442, "RA_OF_ASC_NODE": 211.1497, "ARG_OF_PERICENTER": 329.111, "MEAN_ANOMALY": 148.3351, "EPHEMERIS_TYPE": 0, "CLASSIFICATION_TYPE": "U", "NORAD_CAT_ID": 34005, "ELEMENT_SET_NO": 999, "REV_AT_EPOCH": 88398, "BSTAR": 0.00014020488, "MEAN_MOTION_DOT": 4.19e-06, "MEAN_MOTION_DDOT": 0}, "tle": {"line1": "1 34005U 93036GQ  25348.09165593  .00000419  00000+0  14020-3 0  9996", "line2": "2 34005  74.0442 211.1497 0020894 329.1110 148.3351 14.40305475883984"}}, "geometry": {"type": "Point", "coordinates": [177.3373366094683, -61.51842365820046]}}, {"type": "Feature", "properties": {"norad_id": 34006, "name": "COSMOS 2251 DEB", "group": "cosmos-2251-debris", "lat": -42.143240922652545, "lon": 123.40186886873151, "alt_km": 593.4125093384719, "timestamp": "2025-12-15T04:01:20.845349+00:00", "meta": {"OBJECT_NAME": "COSMOS 2251 DEB", "OBJECT_ID": "1993-036GR", "EPOCH": "2025-12-12T12:13:34.301856", "MEAN_MOTION": 14.94733117, "ECCENTRICITY": 0.00115058, "INCLINATION": 74.0534, "RA_OF_ASC_NODE": 143.7492, "ARG_OF_PERICENTER": 89.3897, "MEAN_ANOMALY": 327.4283, "EPHEMERIS_TYPE": 0, "CLASSIFICATION_TYPE": "U", "NORAD_CAT_ID": 34006, "ELEMENT_SET_NO": 999, "REV_AT_EPOCH": 88665, "BSTAR": 0.0051825966, "MEAN_MOTION_DOT": 0.00056797, "MEAN_MOTION_DDOT": 0}, "tle": {"line1": "1 34006U 93036GR  25346.50942479  .00056797  00000+0  51826-2 0  9991", "line2": "2 34006  74.0534 143.7492 0011505  89.3897 327.4283 14.94733117886656"}}, "geometry": {"type": "Point", "coordinates": [123.40186886873151, -42.143240922652545]}}, {"type": "Feature", "properties": {"norad_id": 34007, "name": "COSMOS 2251 DEB", "group": "cosmos-2251-debris", "lat": -9.433222250164665, "lon": -20.505051639954843, "alt_km": 699.8378051604595, "timestamp": "2025-12-15T04:01:20.845359+00:00", "meta": {"OBJECT_NAME": "COSMOS 2251 DEB", "OBJECT_ID": "1993-036GS", "EPOCH": "2025-12-14T01:50:29.011488", "MEAN_MOTION": 14.64799693, "ECCENTRICITY": 0.00442782, "INCLINATION": 74.0195, "RA_OF_ASC_NODE": 344.3228, "ARG_OF_PERICENTER": 118.869, "MEAN_ANOMALY": 241.6933, "EPHEMERIS_TYPE": 0, "CLASSIFICATION_TYPE": "U", "NORAD_CAT_ID": 34007, "ELEMENT_SET_NO": 999, "REV_AT_EPOCH": 89099, "BSTAR": 0.00080173772, "MEAN_MOTION_DOT": 4.31e-05, "MEAN_MOTION_DDOT": 0}, "tle": {"line1": "1 34007U 93036GS  25348.07672467  .00004310  00000+0  80174-3 0  9996", "line2": "2 34007  74.0195 344.3228 0044278 118.8690 241.6933 14.64799693890997"}}, "geometry": {"type": "Point", "coordinates": [-20.505051639954843, -9.433222250164665]}}, {"type": "Feature", "properties": {"norad_id": 34008, "name": "COSMOS 2251 DEB", "group": "cosmos-2251-debris", "lat": 39.573484623679185, "lon": 132.3951096078407, "alt_km": 795.2585884700884, "timestamp": "2025-12-15T04:01:20.845369+00:00", "meta": {"OBJECT_NAME": "COSMOS 2251 DEB", "OBJECT_ID": "1993-036GT", "EPOCH": "2025-12-14T07:48:28.206144", "MEAN_MOTION": 14.33147706, "ECCENTRICITY": 0.00243733, "INCLINATION": 74.0343, "RA_OF_ASC_NODE": 327.6203, "ARG_OF_PERICENTER": 322.5561, "MEAN_ANOMALY": 152.0094, "EPHEMERIS_TYPE": 0, "CLASSIFICATION_TYPE": "U", "NORAD_CAT_ID": 34008, "ELEMENT_SET_NO": 999, "REV_AT_EPOCH": 87987, "BSTAR": 0.00017255428, "MEAN_MOTION_DOT": 4.49e-06, "MEAN_MOTION_DDOT": 0}, "tle": {"line1": "1 34008U 93036GT  25348.32532646  .00000449  00000+0  17255-3 0  9998", "line2": "2 34008  74.0343 327.6203 0024373 322.5561 152.0094 14.33147706879870"}}, "geometry": {"type": "Point", "coordinates": [132.3951096078407, 39.573484623679185]}}, {"type": "Feature", "properties": {"norad_id": 34009, "name": "COSMOS 2251 DEB", "group": "cosmos-2251-debris", "lat": 4.46741579353599, "lon": 151.21889579622828, "alt_km": 796.1066420809484, "timestamp": "2025-12-15T04:01:20.845380+00:00", "meta": {"OBJECT_NAME": "COSMOS 2251 DEB", "OBJECT_ID": "1993-036GU", "EPOCH": "2025-12-14T00:40:01.113888", "MEAN_MOTION": 14.33223329, "ECCENTRICITY": 0.00265478, "INCLINATION": 74.037, "RA_OF_ASC_NODE": 334.5824, "ARG_OF_PERICENTER": 43.8086, "MEAN_ANOMALY": 12.5902, "EPHEMERIS_TYPE": 0, "CLASSIFICATION_TYPE": "U", "NORAD_CAT_ID": 34009, "ELEMENT_SET_NO": 999, "REV_AT_EPOCH": 87964, "BSTAR": 0.00019231306, "MEAN_MOTION_DOT": 5.05e-06, "MEAN_MOTION_DDOT": 0}, "tle": {"line1": "1 34009U 93036GU  25348.02779067  .00000505  00000+0  19231-3 0  9995", "line2": "2 34009  74.0370 334.5824 0026547  43.8086  12.5902 14.33223329879646"}}, "geometry": {"type": "Point", "coordinates": [151.21889579622828, 4.46741579353599]}}, {"type": "Feature", "properties": {"norad_id": 34010, "name": "COSMOS 2251 DEB", "group": "cosmos-2251-debris", "lat": 68.63405397121254, "lon": -34.595147155870464, "alt_km": 498.04586433192253, "timestamp": "2025-12-15T04:01:20.845390+00:00", "meta": {"OBJECT_NAME": "COSMOS 2251 DEB", "OBJECT_ID": "1993-036GV", "EPOCH": "2025-12-14T05:33:47.704032", "MEAN_MOTION": 15.19024381, "ECCENTRICITY": 0.00046488, "INCLINATION": 73.998, "RA_OF_ASC_NODE": 280.1802, "ARG_OF_PERICENTER": 67.6439, "MEAN_ANOMALY": 292.525, "EPHEMERIS_TYPE": 0, "CLASSIFICATION_TYPE": "U", "NORAD_CAT_ID": 34010, "ELEMENT_SET_NO": 999, "REV_AT_EPOCH": 89308, "BSTAR": 0.0047204881, "MEAN_MOTION_DOT": 0.00100254, "MEAN_MOTION_DDOT": 0}, "tle": {"line1": "1 34010U 93036GV  25348.23180213  .00100254  00000+0  47205-2 0  9992", "line2": "2 34010  73.9980 280.1802 0004648  67.6439 292.5250 15.19024381893081"}}, "geometry": {"type": "Point", "coordinates": [-34.595147155870464, 68.63405397121254]}}, {"type": "Feature", "properties": {"norad_id": 34011, "name": "COSMOS 2251 DEB", "group": "cosmos-2251-debris", "lat": -68.12092403792391, "lon": -168.80794823632405, "alt_km": 782.2706246007901, "timestamp": "2025-12-15T04:01:20.845400+00:00", "meta": {"OBJECT_NAME": "COSMOS 2251 DEB", "OBJECT_ID": "1993-036GW", "EPOCH": "2025-12-14T00:12:01.166976", "MEAN_MOTION": 14.41778513, "ECCENTRICITY": 0.00356388, "INCLINATION": 74.0148, "RA_OF_ASC_NODE": 327.7954, "ARG_OF_PERICENTER": 50.928, "MEAN_ANOMALY": 309.5037, "EPHEMERIS_TYPE": 0, "CLASSIFICATION_TYPE": "U", "NORAD_CAT_ID": 34011, "ELEMENT_SET_NO": 999, "REV_AT_EPOCH": 87934, "BSTAR": 0.00093404517, "MEAN_MOTION_DOT": 3.048e-05, "MEAN_MOTION_DDOT": 0}, "tle": {"line1": "1 34011U 93036GW  25348.00834684  .00003048  00000+0  93405-3 0  9993", "line2": "2 34011  74.0148 327.7954 0035638  50.9280 309.5037 14.41778513879340"}}, "geometry": {"type": "Point", "coordinates": [-168.80794823632405, -68.12092403792391]}}]}